#dP2023  4 11  0  0  0.00000000     288   u+U IGS20 FIT  GFZ                    
## 2257 172800.00000000   300.00000000 60045 0.0000000000000                    
+  127   C01C02C03C04C05C06C07C08C09C10C11C12C13C14C16C19C20                    
+        C21C22C23C24C25C26C27C28C29C30C32C33C34C35C36C37C38                    
+        C39C40C41C42C43C44C45C46C59C60E01E02E03E04E05E07E08                    
+        E09E10E11E12E13E14E15E18E19E21E24E25E26E27E30E31E33                    
+        E34E36G01G02G03G04G05G06G07G08G09G10G11G12G13G14G15                    
+        G16G17G18G19G20G21G22G23G24G25G26G27G28G29G30G31G32                    
+        J02J03J04J07R01R02R03R04R05R07R08R09R11R12R13R14R15                    
+        R16R17R18R19R20R21R22R24 00 00 00 00 00 00 00 00 00                    
++        10  0 10 10 10 10  0 10 10 10  8 10 10 10 10  6  5                    
++         5  6  7 10  7  8  6  6  5  7  5  5  6  5  7  8 10                    
++        10 10  6  6  6  7  8  7  9 10  6  7  6  5  5  6  6                    
++         5  7  5  5  5  6  7  5  6  5  5  8  5  5  5  6  7                    
++         8  7  5  6  5  5  8  6  6  6  5  7  6  7  5  5  6                    
++         8  7  5  9  8  7  5  6  6  5  5  5 10  5  6  5  5                    
++        10 10  7 10  8  7  7  5  6  7  6  7  5  6  8  6  6                    
++         9  6  7  8 10  0  7  6  0  0  0  0  0  0  0  0  0                    
%c M  cc GPS ccc cccc cccc cccc cccc ccccc ccccc ccccc ccccc                    
%c cc cc ccc ccc cccc cccc cccc cccc ccccc ccccc ccccc ccccc                    
%f  1.2500000  1.025000000  0.00000000000  0.000000000000000                    
%f  0.0000000  0.000000000  0.00000000000  0.000000000000000                    
%i    0    0    0    0      0      0      0      0         0                    
%i    0    0    0    0      0      0      0      0         0                    
/* PCV:IGSM3_2194 OL/AL:FES2014b NONE     YN CLK:CoN ORB:CoN                    
/*     GeoForschungsZentrum Potsdam                                             
/*                                                                              
/*                                                                              
*  2023  4 11  6 35  0.00000000                                                 
PC01 -34318.032005  24515.582108     18.805525    898.733894                    
PC02   4454.030095  41866.095846  -1058.239701   -856.426034                    
PC03 -14763.325383  39449.380465   -328.339506    526.657179                    
PC04 -39605.722573  14457.974581    466.182290    141.762588                    
PC05  21882.099859  35917.229383   -926.782337   -452.077652                    
PC06  -1735.637322  32084.518870 -27138.204329   -197.197639                    
PC07 -16040.082043  27411.331436  27698.981342    145.487881                    
PC08 -14737.242643  39422.822336  -3797.750297    506.757508                    
PC09   5852.372193  36231.002158 -19852.635029    780.304471                    
PC10  -6625.972807  28145.578925  30864.738689    -30.458928                    
PC11  -9468.626137  12280.663259  23263.281266    294.104127                    
PC12 -21090.759300  -4550.090421  17729.886614    564.198989                    
PC13  -9618.149014  39988.837395  -9721.519829    250.206244                    
PC14 -19516.315835  15009.628457 -13055.167070    108.123403                    
PC16  -3706.771398  30066.662939 -28973.194325    112.791395                    
PC19  10444.738054 -16948.464583  19597.996855   -900.393059                    
PC20  24686.184864 -11523.510134   6150.387467    631.932654                    
PC21 -25079.605686  -1396.972189  12150.634401   -909.700043                    
PC22 -10507.896597 -12891.653810  22409.636330   -541.507228                    
PC23   4850.155414  23416.915953  14385.733245   -903.549121                    
PC24 -16612.669735  13692.095926 -17784.026137   -185.280172                    
PC25  -7100.195236  26959.681862  -1470.450540    104.442887                    
PC26 -15515.491493  -5121.364436 -22637.011299   -104.631425                    
PC27  22801.562841  11684.848706 -11062.322434    123.922378                    
PC28  16727.836985  21690.959501   5328.615406     91.209678                    
PC29   -231.521488 -19273.359870 -20191.245328    105.600143                    
PC30  16775.299464  -5187.953600 -21693.661991      0.474410                    
PC32  25095.267368   1198.215810 -12142.573388   -581.212980                    
PC33 -10409.707776  17005.124970 -19504.777629   -873.054073                    
PC34 -15938.155318   6312.147524  22009.478934    146.414748                    
PC35 -16901.797164 -21358.847918  -6192.991640    648.198658                    
PC36   8185.928785 -26587.734242   2175.807138   -508.149731                    
PC37  14942.035732   6977.018241  22523.332241   -791.116470                    
PC38 -18499.513544  37663.059879   4847.000459     71.009709                    
PC39  -7679.997471  26107.696893 -32103.867845     -2.490437                    
PC40 -21796.055831  21000.455540  29238.856248    -20.016393                    
PC41   9916.135226  13139.857781 -22475.919403   -835.965716                    
PC42 -25250.349698  10815.097615  -4785.916521   -742.602528                    
PC43   -701.507517  18924.383051  20475.084212     16.151124                    
PC44 -23279.079388 -11001.297127  10790.719488     72.369319                    
PC45  -5070.786161 -23108.658143 -14785.613329    -83.598257                    
PC46  16189.400426 -15247.279329  16830.224905    -46.178546                    
PC59 -32318.807289  27039.306071   -766.031513     -0.533812                    
PC60   7325.840423  41516.480803    252.959859     -0.660549                    
PE01 -21523.448290   1576.394054 -20266.742079     -3.270784                    
PE02  21712.810748  -2015.806520  20000.781365     31.669575                    
PE03  28887.603142   5676.793415   3140.452862   -668.063526                    
PE04 -21277.900868   7959.135143 -18962.352885    -98.059725                    
PE05  19661.978364  16317.037881 -14936.544795    -77.872522                    
PE07   1173.178288 -17221.515692  24056.656029    -36.722371                    
PE08  21426.861097  -7745.596905  18908.945993    -65.532794                    
PE09  -1284.004709  17040.615365 -24160.965988   -900.843875                    
PE10  -6184.155111  22452.815071  18258.912471   -525.637714                    
PE11    929.452492  27987.677795   9545.489682   1566.817226                    
PE12 -11895.233270  13937.800059  23235.382093   -494.098621                    
PE13   -444.580154 -27743.974977 -10327.858190    -18.443480                    
PE14 -15761.327647 -17505.018168 -12519.948246    193.878717                    
PE15  11959.995307 -13624.683218 -23398.618937    -13.767426                    
PE18  28492.721773  11612.541799   -219.738679   -178.981595                    
PE19 -28607.779974  -7584.144278   -565.461234  -2793.219971                    
PE21  -8836.889568 -14573.502595 -24206.497962   -522.709589                    
PE24 -10654.878112  23805.104514  14002.652401    -37.891017                    
PE25   8525.035339  14831.068389  24156.948720   -603.057045                    
PE26 -12819.895599 -25002.778422   9323.954876     71.860307                    
PE27   9873.405012 -23738.109864 -14662.337382    -22.268326                    
PE30  22838.505395 -18392.013500   3966.566975    -83.620834                    
PE31 -22581.968309  18833.972616  -3418.841453   -520.983606                    
PE33 -17213.437026  -8452.908889  22554.222244   -446.626330                    
PE34  17229.093302   8228.955566 -22625.839990    -39.613568                    
PE36  12430.231384  25431.872478  -8626.455853    -39.638513                    
PG01 -14012.472628   3458.162491  21960.950233    194.327904                    
PG02  10330.135504 -13587.003007 -19948.106552   -607.134579                    
PG03 -22051.042690  11350.147949   9214.161441   -331.808114                    
PG04 -22672.621864   1878.038021 -13787.957370     14.052679                    
PG05  17211.196695   2771.965231 -20242.440022   -122.958477                    
PG06   5079.536212  26014.325504    138.122356    586.392742                    
PG07  -8392.892870  18267.861352 -16657.826112    203.933421                    
PG08 -25956.821189  -6139.066791   2289.652241   -117.186310                    
PG09 -14229.407354  10394.874364 -19955.646725   -182.434676                    
PG10   6038.526068 -20114.731774  16247.022768    -32.341479                    
PG11  12292.832271  19487.695391 -13235.510220   -158.701313                    
PG12  22676.511659  -8070.045408  10845.177422   -362.509605                    
PG13  22677.398920  13677.657260  -3326.556075    504.031122                    
PG14  -9232.177580  20639.953514  13829.912139     21.642334                    
PG15  26388.246762   3178.080732   2138.307211     29.586665                    
PG16 -15054.653371  -7010.277608 -21126.044343   -509.652337                    
PG17    351.441511  15957.588000  21642.420937    710.011508                    
PG18   6119.969380 -21227.167661 -14635.077430   -219.085639                    
PG19  10786.323286  17435.611628  16812.233833    302.098699                    
PG20  10412.128873  11656.843400 -21453.127483    439.705902                    
PG21 -16735.235821  -5962.708620  20549.340454    154.253153                    
PG22 -13602.932417 -17386.190717  15334.248444    462.022232                    
PG23  15752.527545 -20451.069907   5913.693311     16.074310                    
PG24  16219.590993    759.627890  20721.388755   -147.263403                    
PG25  20189.955594 -16922.139647   1593.713402    434.716792                    
PG26  -4709.610732 -16572.003882 -20249.532907    241.801126                    
PG27 -21845.347536 -13183.155006  -8361.599619     61.501381                    
PG28  -4915.844639 -26023.503549   2029.039838     62.875009                    
PG29  18102.040883  -6034.459655 -18561.918469   -595.003197                    
PG30   -452.088344  25363.014912  -7289.982720   -522.926094                    
PG31  -8665.447120 -24210.327144  -5832.344731   -213.702058                    
PG32  -4435.979599 -16537.669061  20531.836051   -448.387581                    
PJ02 -29115.574164  30596.805523   5427.923232     -1.487865                    
PJ03 -25841.223225  23063.897376  29117.954751      2.123260                    
PJ04 -33983.224054  22288.653885  -6165.698162     94.172669                    
PJ07 -25386.064668  33657.492333    -52.904729      0.028032                    
PR01  25122.035964  -1028.461789  -4341.778929     26.458721                    
PR02  19736.689570  -8301.542109  13865.289834    -22.968308                    
PR03   2848.409970 -11121.555229  22825.337417     75.812397                    
PR04 -15111.271653  -7579.648823  19140.296601    182.867428                    
PR05 -25021.356747   -138.436456   5033.654685    110.780010                    
PR07  -2077.092040  11051.294187 -22852.680135     53.566977                    
PR08  15342.799588   7474.142507 -18881.515221    -70.294240                    
PR09 -13358.268169  19418.287682  -9640.691173    114.080063                    
PR11   3814.605406  15173.069656  20149.385018    -33.917235                    
PR12  12958.531916  -3562.576875  21698.441264     26.359460                    
PR13  13794.123085 -18196.364058  11350.645879    -33.861363                    
PR14   6295.562400 -23528.533037  -7601.874823     24.532150                    
PR15  -4466.204682 -14297.276606 -20632.667223     89.875257                    
PR16 -12691.501692   3358.460572 -21858.240316     13.392003                    
PR17  -5778.636624 -19883.437817 -14870.807877    620.180681                    
PR18 -14897.008531 -20722.282175    978.562660     75.947552                    
PR19 -16201.131826 -12406.066124  15305.582126   -228.621834                    
PR20  -7825.568544   6911.501194  23275.872306    -90.889667                    
PR21   6880.822773  20516.105438  13517.298982      0.882607                    
PR22  14467.100866  20915.014690  -1831.667340     78.818133                    
PR24   7529.179443  -8043.987136 -22992.203514    161.023034                    
EOF                                     
